start=new Date('2021-09-25T00:00:00.000Z').valueOf();
sats=[{"MEAN_MOTION":"15.06410546","MEAN_ELEMENT_THEORY":"SGP4","DECAY_DATE":null,"ELEMENT_SET_NO":"999","OBJECT_NAME":"STARLINK-2649","MEAN_MOTION_DOT":"-0.00001124","LAUNCH_DATE":"2021-05-26","REF_FRAME":"TEME","RA_OF_ASC_NODE":"214.8490","OBJECT_TYPE":"PAYLOAD","CLASSIFICATION_TYPE":"U","ARG_OF_PERICENTER":"74.3222","APOAPSIS":"548.291","NORAD_CAT_ID":"48680","EPHEMERIS_TYPE":"0","FILE":"3126800","COUNTRY_CODE":"US","MEAN_ANOMALY":"285.7944","BSTAR":"-0.00005656000000","GP_ID":"185430564","SITE":"AFETR","TIME_SYSTEM":"UTC","RCS_SIZE":"LARGE","OBJECT_ID":"2021-044AU","MEAN_MOTION_DDOT":"0.0000000000000","INCLINATION":"53.0560","TLE_LINE2":"2 48680  53.0560 214.8490 0001603  74.3222 285.7944 15.06410546 18645","ECCENTRICITY":"0.00016030","SEMIMAJOR_AXIS":"6925.316","PERIAPSIS":"546.071","REV_AT_EPOCH":"1864","CENTER_NAME":"EARTH","EPOCH":"2021-09-24T19:58:26.882112","PERIOD":"95.591","TLE_LINE1":"1 48680U 21044AU  21267.83225558 -.00001124  00000-0 -56560-4 0  9999"},{"REF_FRAME":"TEME","RA_OF_ASC_NODE":"185.3838","MEAN_MOTION_DOT":"-0.01071795","LAUNCH_DATE":"2021-05-26","OBJECT_NAME":"STARLINK-2725","MEAN_MOTION":"15.31083545","MEAN_ELEMENT_THEORY":"SGP4","DECAY_DATE":null,"ELEMENT_SET_NO":"999","FILE":"3126800","MEAN_ANOMALY":"141.6130","COUNTRY_CODE":"US","NORAD_CAT_ID":"48681","EPHEMERIS_TYPE":"0","APOAPSIS":"473.674","CLASSIFICATION_TYPE":"U","OBJECT_TYPE":"PAYLOAD","ARG_OF_PERICENTER":"56.8585","ECCENTRICITY":"0.00015960","SEMIMAJOR_AXIS":"6850.715","PERIAPSIS":"471.487","TLE_LINE2":"2 48681  53.0506 185.3838 0001596  56.8585 141.6130 15.31083545  3679","OBJECT_ID":"2021-044AV","MEAN_MOTION_DDOT":"0.0000000000000","INCLINATION":"53.0506","BSTAR":"-0.03839800000000","GP_ID":"185431316","SITE":"AFETR","RCS_SIZE":"LARGE","TIME_SYSTEM":"UTC","PERIOD":"94.051","TLE_LINE1":"1 48681U 21044AV  21268.00002315 -.01071795  00000-0 -38398-1 0  9992","CENTER_NAME":"EARTH","EPOCH":"2021-09-25T00:00:02.000160","REV_AT_EPOCH":"367"},{"ECCENTRICITY":"0.00040990","SEMIMAJOR_AXIS":"6727.899","PERIAPSIS":"347.007","TLE_LINE2":"2 48682  53.0450 182.2755 0004099   7.5478 291.2118 15.73198552  3698","MEAN_MOTION_DDOT":"0.0000000000000","INCLINATION":"53.0450","OBJECT_ID":"2021-044AW","GP_ID":"185430670","BSTAR":"0.00007508200000","TIME_SYSTEM":"UTC","SITE":"AFETR","RCS_SIZE":"LARGE","TLE_LINE1":"1 48682U 21044AW  21268.00002315  .00009930  00000-0  75082-4 0  9996","PERIOD":"91.533","EPOCH":"2021-09-25T00:00:02.000160","CENTER_NAME":"EARTH","REV_AT_EPOCH":"369","REF_FRAME":"TEME","RA_OF_ASC_NODE":"182.2755","MEAN_MOTION_DOT":"0.00009930","LAUNCH_DATE":"2021-05-26","OBJECT_NAME":"STARLINK-2743","MEAN_MOTION":"15.73198552","ELEMENT_SET_NO":"999","DECAY_DATE":null,"MEAN_ELEMENT_THEORY":"SGP4","COUNTRY_CODE":"US","FILE":"3126800","MEAN_ANOMALY":"291.2118","NORAD_CAT_ID":"48682","EPHEMERIS_TYPE":"0","APOAPSIS":"352.522","OBJECT_TYPE":"PAYLOAD","CLASSIFICATION_TYPE":"U","ARG_OF_PERICENTER":"7.5478"},{"MEAN_MOTION_DDOT":"0.0000000000000","INCLINATION":"53.0451","OBJECT_ID":"2021-044AX","TIME_SYSTEM":"UTC","SITE":"AFETR","RCS_SIZE":"LARGE","GP_ID":"185431101","BSTAR":"0.00008533400000","PERIAPSIS":"347.078","SEMIMAJOR_AXIS":"6727.878","ECCENTRICITY":"0.00039610","TLE_LINE2":"2 48683  53.0451 182.2750 0003961   5.1167 294.2587 15.73206192  3694","REV_AT_EPOCH":"369","TLE_LINE1":"1 48683U 21044AX  21268.00002315  .00011377  00000-0  85334-4 0  9996","PERIOD":"91.533","EPOCH":"2021-09-25T00:00:02.000160","CENTER_NAME":"EARTH","OBJECT_NAME":"STARLINK-2756","DECAY_DATE":null,"ELEMENT_SET_NO":"999","MEAN_ELEMENT_THEORY":"SGP4","MEAN_MOTION":"15.73206192","RA_OF_ASC_NODE":"182.2750","REF_FRAME":"TEME","LAUNCH_DATE":"2021-05-26","MEAN_MOTION_DOT":"0.00011377","APOAPSIS":"352.407","ARG_OF_PERICENTER":"5.1167","OBJECT_TYPE":"PAYLOAD","CLASSIFICATION_TYPE":"U","FILE":"3126800","COUNTRY_CODE":"US","MEAN_ANOMALY":"294.2587","EPHEMERIS_TYPE":"0","NORAD_CAT_ID":"48683"},{"MEAN_ANOMALY":"311.3231","FILE":"3126800","COUNTRY_CODE":"US","NORAD_CAT_ID":"48684","EPHEMERIS_TYPE":"0","APOAPSIS":"539.598","CLASSIFICATION_TYPE":"U","OBJECT_TYPE":"PAYLOAD","ARG_OF_PERICENTER":"48.8088","REF_FRAME":"TEME","RA_OF_ASC_NODE":"189.8256","MEAN_MOTION_DOT":"-0.00321354","LAUNCH_DATE":"2021-05-26","OBJECT_NAME":"STARLINK-2741","MEAN_MOTION":"15.09754092","ELEMENT_SET_NO":"999","DECAY_DATE":null,"MEAN_ELEMENT_THEORY":"SGP4","TLE_LINE1":"1 48684U 21044AY  21267.84021853 -.00321354  00000-0 -20564-1 0  9998","PERIOD":"95.380","CENTER_NAME":"EARTH","EPOCH":"2021-09-24T20:09:54.880992","REV_AT_EPOCH":"1899","ECCENTRICITY":"0.00038250","PERIAPSIS":"534.308","SEMIMAJOR_AXIS":"6915.088","TLE_LINE2":"2 48684  53.0437 189.8256 0003825  48.8088 311.3231 15.09754092 18990","MEAN_MOTION_DDOT":"0.0000000000000","INCLINATION":"53.0437","OBJECT_ID":"2021-044AY","GP_ID":"185430889","BSTAR":"-0.02056400000000","SITE":"AFETR","RCS_SIZE":"LARGE","TIME_SYSTEM":"UTC"},{"MEAN_MOTION_DDOT":"0.0000000000000","INCLINATION":"53.0453","OBJECT_ID":"2021-044AZ","GP_ID":"185431209","BSTAR":"-0.00052631000000","RCS_SIZE":"LARGE","SITE":"AFETR","TIME_SYSTEM":"UTC","ECCENTRICITY":"0.00041150","PERIAPSIS":"346.844","SEMIMAJOR_AXIS":"6727.748","TLE_LINE2":"2 48685  53.0453 182.2758 0004115   6.7661 293.8512 15.73251661  3698","REV_AT_EPOCH":"369","TLE_LINE1":"1 48685U 21044AZ  21268.00002315 -.00074060  00000-0 -52631-3 0  9991","PERIOD":"91.530","EPOCH":"2021-09-25T00:00:02.000160","CENTER_NAME":"EARTH","OBJECT_NAME":"STARLINK-2751","MEAN_MOTION":"15.73251661","ELEMENT_SET_NO":"999","DECAY_DATE":null,"MEAN_ELEMENT_THEORY":"SGP4","REF_FRAME":"TEME","RA_OF_ASC_NODE":"182.2758","MEAN_MOTION_DOT":"-0.00074060","LAUNCH_DATE":"2021-05-26","APOAPSIS":"352.381","OBJECT_TYPE":"PAYLOAD","CLASSIFICATION_TYPE":"U","ARG_OF_PERICENTER":"6.7661","FILE":"3126800","COUNTRY_CODE":"US","MEAN_ANOMALY":"293.8512","EPHEMERIS_TYPE":"0","NORAD_CAT_ID":"48685"},{"CENTER_NAME":"EARTH","EPOCH":"2021-09-25T00:00:02.000160","PERIOD":"92.614","TLE_LINE1":"1 48686U 21044BA  21268.00002315 -.01095865  00000-0 -17824-1 0  9992","REV_AT_EPOCH":"369","TLE_LINE2":"2 48686  53.0450 182.7266 0001144  63.5253 340.7466 15.54839241  3697","ECCENTRICITY":"0.00011440","SEMIMAJOR_AXIS":"6780.757","PERIAPSIS":"401.846","BSTAR":"-0.01782400000000","GP_ID":"185430994","TIME_SYSTEM":"UTC","SITE":"AFETR","RCS_SIZE":"LARGE","OBJECT_ID":"2021-044BA","MEAN_MOTION_DDOT":"0.0000000000000","INCLINATION":"53.0450","NORAD_CAT_ID":"48686","EPHEMERIS_TYPE":"0","MEAN_ANOMALY":"340.7466","FILE":"3126800","COUNTRY_CODE":"US","CLASSIFICATION_TYPE":"U","OBJECT_TYPE":"PAYLOAD","ARG_OF_PERICENTER":"63.5253","APOAPSIS":"403.398","MEAN_MOTION_DOT":"-0.01095865","LAUNCH_DATE":"2021-05-26","REF_FRAME":"TEME","RA_OF_ASC_NODE":"182.7266","MEAN_MOTION":"15.54839241","MEAN_ELEMENT_THEORY":"SGP4","DECAY_DATE":null,"ELEMENT_SET_NO":"999","OBJECT_NAME":"STARLINK-2629"},{"OBJECT_NAME":"STARLINK-2627","MEAN_MOTION":"15.73196852","ELEMENT_SET_NO":"999","DECAY_DATE":null,"MEAN_ELEMENT_THEORY":"SGP4","REF_FRAME":"TEME","RA_OF_ASC_NODE":"182.2668","MEAN_MOTION_DOT":"0.00020057","LAUNCH_DATE":"2021-05-26","APOAPSIS":"352.431","CLASSIFICATION_TYPE":"U","OBJECT_TYPE":"PAYLOAD","ARG_OF_PERICENTER":"3.3549","COUNTRY_CODE":"US","FILE":"3126800","MEAN_ANOMALY":"298.5254","EPHEMERIS_TYPE":"0","NORAD_CAT_ID":"48687","INCLINATION":"53.0449","MEAN_MOTION_DDOT":"0.0000000000000","OBJECT_ID":"2021-044BB","GP_ID":"185430778","BSTAR":"0.00014695000000","RCS_SIZE":"LARGE","SITE":"AFETR","TIME_SYSTEM":"UTC","ECCENTRICITY":"0.00039560","SEMIMAJOR_AXIS":"6727.904","PERIAPSIS":"347.108","TLE_LINE2":"2 48687  53.0449 182.2668 0003956   3.3549 298.5254 15.73196852  3690","REV_AT_EPOCH":"369","TLE_LINE1":"1 48687U 21044BB  21268.00002315  .00020057  00000-0  14695-3 0  9996","PERIOD":"91.533","CENTER_NAME":"EARTH","EPOCH":"2021-09-25T00:00:02.000160"},{"BSTAR":"0.00013188000000","GP_ID":"185430565","SITE":"AFETR","RCS_SIZE":"LARGE","TIME_SYSTEM":"UTC","OBJECT_ID":"2021-044BC","INCLINATION":"53.0449","MEAN_MOTION_DDOT":"0.0000000000000","TLE_LINE2":"2 48688  53.0449 182.2651 0004006   4.3310 298.2287 15.73199331  3695","ECCENTRICITY":"0.00040060","PERIAPSIS":"347.067","SEMIMAJOR_AXIS":"6727.897","REV_AT_EPOCH":"369","CENTER_NAME":"EARTH","EPOCH":"2021-09-25T00:00:02.000160","PERIOD":"91.533","TLE_LINE1":"1 48688U 21044BC  21268.00002315  .00017933  00000-0  13188-3 0  9992","MEAN_MOTION":"15.73199331","MEAN_ELEMENT_THEORY":"SGP4","DECAY_DATE":null,"ELEMENT_SET_NO":"999","OBJECT_NAME":"STARLINK-2742","MEAN_MOTION_DOT":"0.00017933","LAUNCH_DATE":"2021-05-26","REF_FRAME":"TEME","RA_OF_ASC_NODE":"182.2651","OBJECT_TYPE":"PAYLOAD","CLASSIFICATION_TYPE":"U","ARG_OF_PERICENTER":"4.3310","APOAPSIS":"352.457","EPHEMERIS_TYPE":"0","NORAD_CAT_ID":"48688","COUNTRY_CODE":"US","FILE":"3126800","MEAN_ANOMALY":"298.2287"},{"EPOCH":"2021-09-25T00:00:02.000160","CENTER_NAME":"EARTH","PERIOD":"91.526","TLE_LINE1":"1 48689U 21044BD  21268.00002315 -.00690450  00000-0 -52992-2 0  9991","REV_AT_EPOCH":"369","TLE_LINE2":"2 48689  53.0450 182.2686 0003829   6.8727 296.3908 15.73315319  3692","PERIAPSIS":"346.855","SEMIMAJOR_AXIS":"6727.566","ECCENTRICITY":"0.00038290","RCS_SIZE":"LARGE","SITE":"AFETR","TIME_SYSTEM":"UTC","BSTAR":"-0.00529920000000","GP_ID":"185431317","OBJECT_ID":"2021-044BD","MEAN_MOTION_DDOT":"0.0000000000000","INCLINATION":"53.0450","EPHEMERIS_TYPE":"0","NORAD_CAT_ID":"48689","FILE":"3126800","COUNTRY_CODE":"US","MEAN_ANOMALY":"296.3908","ARG_OF_PERICENTER":"6.8727","CLASSIFICATION_TYPE":"U","OBJECT_TYPE":"PAYLOAD","APOAPSIS":"352.007","LAUNCH_DATE":"2021-05-26","MEAN_MOTION_DOT":"-0.00690450","RA_OF_ASC_NODE":"182.2686","REF_FRAME":"TEME","MEAN_ELEMENT_THEORY":"SGP4","DECAY_DATE":null,"ELEMENT_SET_NO":"999","MEAN_MOTION":"15.73315319","OBJECT_NAME":"STARLINK-2617"}];
